store_id,address,city,state,zipcode,longitude,latitude,timezone
1101,7 Manufacturers Court,Hayward,CA,94544,-122.067,37.6374,PST (GMT-08)
1125,3 Forest Run Road,El Paso,TX,88514,-106.3,31.6948,MST (GMT-07)
1133,8 Larry Alley,Amarillo,TX,79171,-101.8951,35.4015,CST (GMT-06)
1141,2657 Kings Center,Lake Worth,FL,33462,-80.0794,26.5747,EST (GMT-05)
1149,36 Chinook Crossing,Roanoke,VA,24040,-79.9579,37.2742,EST (GMT-05)
1157,28049 Moose Road,Seattle,WA,98115,-122.2968,47.6849,PST (GMT-08)
1165,214 Union Center,Orlando,FL,32813,-81.3258,28.5679,EST (GMT-05)
1189,19 Mesta Junction,El Paso,TX,79984,-106.3,31.6948,MST (GMT-07)
1205,9616 Warner Lane,Tulsa,OK,74126,-95.9931,36.2383,CST (GMT-06)
1213,66 Carpenter Park,Englewood,CO,80150,-104.4083,39.7388,MST (GMT-07)
1221,99643 Mitchell Point,Carol Stream,IL,60158,-88.1208,41.9166,CST (GMT-06)
1229,3 Glacier Hill Way,Charleston,WV,25362,-81.5547,38.2968,EST (GMT-05)
1261,149 Monterey Lane,Cheyenne,WY,82007,-104.8107,41.1084,MST (GMT-07)
1285,32740 Waxwing Drive,Sacramento,CA,95813,-121.4475,38.6026,PST (GMT-08)
1293,2681 Meadow Valley Road,Rochester,MN,55905,-92.4668,44.0225,CST (GMT-06)
1301,54 Bartelt Terrace,Saint Paul,MN,55172,-93.1059,45.0059,CST (GMT-06)
1309,0205 Dexter Circle,Jamaica,NY,11436,-73.7966,40.6763,EST (GMT-05)
1397,58 Jenifer Lane,Fort Lauderdale,FL,33315,-80.1541,26.0989,EST (GMT-05)
1429,836 Becker Circle,Billings,MT,59112,-108.1945,45.9783,MST (GMT-07)
1469,9721 Arrowood Plaza,Bloomington,IN,47405,-86.5186,39.1682,EST (GMT-05)
1477,620 Declaration Court,Honolulu,HI,96815,-157.8266,21.2811,HST (GMT-10)
1501,1373 Sauthoff Lane,Chicago,IL,60681,-87.6873,41.8119,CST (GMT-06)
1509,7 Schlimgen Center,Columbus,OH,43231,-82.9383,40.081,EST (GMT-05)
1533,1718 Upham Road,Portland,OR,97201,-122.6897,45.5078,PST (GMT-08)
1549,79 Ridgeview Circle,Washington,DC,20414,-77.0221,38.884,EST (GMT-05)
1557,41002 Scofield Pass,Van Nuys,CA,91406,-118.4868,34.2006,PST (GMT-08)
1565,528 Delaware Place,Hampton,VA,23668,-76.3377,37.0206,EST (GMT-05)
1573,732 Forest Run Parkway,Los Angeles,CA,90065,-118.2266,34.1073,PST (GMT-08)
1589,82 Sugar Place,El Paso,TX,79984,-106.3,31.6948,MST (GMT-07)
1629,81664 Katie Center,Colorado Springs,CO,80940,-104.562,38.8247,MST (GMT-07)
1653,7443 Warrior Circle,Duluth,GA,30195,-84.1532,34.0047,EST (GMT-05)
1661,85983 Ohio Court,El Paso,TX,88584,-106.3,31.6948,MST (GMT-07)
1701,844 Westport Center,Arlington,TX,76004,-97.2915,32.7714,CST (GMT-06)
1709,0 Prairie Rose Court,Bellevue,WA,98008,-122.1162,47.6115,PST (GMT-08)
1725,57 Manufacturers Terrace,Colorado Springs,CO,80951,-104.6556,38.8881,MST (GMT-07)
1749,972 Laurel Center,Montgomery,AL,36125,-86.2085,32.2334,CST (GMT-06)
1773,89317 Rigney Alley,Chula Vista,CA,91913,-116.9852,32.6513,PST (GMT-08)
1789,16 Forest Dale Drive,Hicksville,NY,11854,-73.6018,40.7548,EST (GMT-05)
1805,38452 Mcguire Junction,Savannah,GA,31416,-81.0477,32.0053,EST (GMT-05)
1821,57 Hoard Drive,Springfield,MO,65805,-93.3437,37.2581,CST (GMT-06)
1829,34816 Comanche Hill,Phoenix,AZ,85077,-112.1872,33.2765,MST (GMT-07)
1845,5 Hudson Alley,Birmingham,AL,35290,-86.9292,33.5446,CST (GMT-06)
1853,190 Arrowood Junction,Anchorage,AK,99522,-149.4403,61.1089,AKST (GMT-09)
1901,421 Northfield Place,Atlanta,GA,30358,-84.3411,33.9982,EST (GMT-05)
1917,1518 Paget Circle,Boise,ID,83732,-116.244,43.4599,MST (GMT-07)
1949,3151 Pankratz Circle,Chandler,AZ,85246,-112.1872,33.2765,MST (GMT-07)
1965,97388 Randy Park,Spokane,WA,99260,-117.4317,47.6536,PST (GMT-08)
1989,7 Fair Oaks Point,Whittier,CA,90610,-118.2987,33.7866,PST (GMT-08)
1997,6446 North Drive,Decatur,IL,62525,-88.9815,39.854,CST (GMT-06)
2021,0665 Daystar Point,Spokane,WA,99215,-117.4317,47.6536,PST (GMT-08)
2061,5197 Dunning Road,San Jose,CA,95173,-121.8938,37.3352,PST (GMT-08)
2085,687 Katie Plaza,Pompano Beach,FL,33064,-80.1157,26.2785,EST (GMT-05)
2093,5 Judy Place,Memphis,TN,38168,-89.9715,35.2017,CST (GMT-06)
2101,26 Mariners Cove Point,Corpus Christi,TX,78470,-97.4632,27.777,CST (GMT-06)
2109,31036 8th Drive,Atlanta,GA,31119,-84.0746,33.8913,EST (GMT-05)
2125,91 Parkside Way,Newport Beach,CA,92662,-117.8931,33.6062,PST (GMT-08)
2133,9 Longview Terrace,Pittsburgh,PA,15279,-80.0248,40.4344,EST (GMT-05)
2141,08804 Fordem Place,Boise,ID,83705,-116.2191,43.5851,MST (GMT-07)
2165,33 Reindahl Park,Long Beach,CA,90810,-118.2325,33.8193,PST (GMT-08)
2173,943 Bashford Drive,Los Angeles,CA,90076,-118.2987,33.7866,PST (GMT-08)
2213,3 Northfield Crossing,Richmond,VA,23203,-77.4471,37.5593,EST (GMT-05)
2245,28 Raven Parkway,New York City,NY,10275,-73.9772,40.7808,EST (GMT-05)
2253,1662 Milwaukee Lane,Henderson,NV,89012,-115.0433,36.0119,PST (GMT-08)
2309,7106 Blaine Pass,Sacramento,CA,95838,-121.444,38.6406,PST (GMT-08)
2325,274 Oneill Way,Las Vegas,NV,89125,-115.2655,36.2235,PST (GMT-08)
2341,0102 Pennsylvania Hill,Philadelphia,PA,19131,-75.2282,39.9845,EST (GMT-05)
2349,2 Sloan Lane,Oklahoma City,OK,73173,-97.6317,35.3425,CST (GMT-06)
2397,5 Schmedeman Avenue,Boston,MA,2104,-70.9196,42.3389,EST (GMT-05)
2429,8583 Farmco Trail,Spokane,WA,99220,-117.4317,47.6536,PST (GMT-08)
2453,22460 Harper Park,Jeffersonville,IN,47134,-85.7321,38.2868,EST (GMT-05)
2461,157 Packers Drive,Baltimore,MD,21282,-76.5921,39.439,EST (GMT-05)
2485,279 Logan Alley,Fairbanks,AK,99790,-146.276,64.8561,AKST (GMT-09)
2493,668 Hoffman Crossing,Philadelphia,PA,19131,-75.2282,39.9845,EST (GMT-05)
2509,81780 Fair Oaks Pass,Brooksville,FL,34605,-82.4226,28.5059,EST (GMT-05)
2517,90 Maple Junction,Palatine,IL,60078,-87.6873,41.8119,CST (GMT-06)
2525,859 Holmberg Road,Helena,MT,59623,-112.0402,46.5901,MST (GMT-07)
2533,6491 Hanover Way,Washington,DC,20557,-77.0047,38.8874,EST (GMT-05)
2541,18 Harbort Plaza,Colorado Springs,CO,80905,-104.837,38.8377,MST (GMT-07)
2549,6 Leroy Center,Lexington,KY,40505,-84.4583,38.0612,EST (GMT-05)
2597,406 Kinsman Circle,Honolulu,HI,96805,-157.8585,21.3062,HST (GMT-10)
2605,9 Marquette Place,Houston,TX,77080,-95.523,29.8159,CST (GMT-06)
2621,7 West Center,Des Moines,IA,50362,-93.5722,41.6727,CST (GMT-06)
2653,075 Arrowood Crossing,Fairfax,VA,22036,-77.0796,38.7351,EST (GMT-05)
2677,5 Thompson Hill,Knoxville,TN,37919,-84.0015,35.9244,EST (GMT-05)
2693,95294 Bashford Hill,Gainesville,GA,30506,-83.8882,34.3562,EST (GMT-05)
2701,0620 Merry Place,Ogden,UT,84403,-111.9489,41.1894,MST (GMT-07)
2773,9504 Sommers Park,Boulder,CO,80305,-105.2531,39.9807,MST (GMT-07)
2781,626 Sommers Pass,Miami Beach,FL,33141,-80.1446,25.8486,EST (GMT-05)
2797,56582 Golf Lane,Washington,DC,20215,-77.0146,38.8933,EST (GMT-05)
2805,0943 Farmco Circle,Tacoma,WA,98481,-122.1132,47.0662,PST (GMT-08)
2821,111 Scott Street,Prescott,AZ,86305,-112.9584,34.8185,MST (GMT-07)
2861,28422 Eagle Crest Junction,Boise,ID,83705,-116.2191,43.5851,MST (GMT-07)
2869,282 Duke Way,Denver,CO,80291,-104.9876,39.7439,MST (GMT-07)
2893,4 Northland Court,Oakland,CA,94611,-122.2223,37.8471,PST (GMT-08)
2925,54 Gale Parkway,Stamford,CT,6922,-73.5143,41.0516,EST (GMT-05)
2933,629 Daystar Park,Virginia Beach,VA,23471,-76.0126,36.7957,EST (GMT-05)
2989,56502 Di Loreto Court,Kansas City,KS,66105,-94.6356,39.085,CST (GMT-06)
2997,72507 Graedel Road,Duluth,MN,55805,-92.0946,46.7987,CST (GMT-06)
3013,7195 Leroy Plaza,Baltimore,MD,21211,-76.6336,39.3316,EST (GMT-05)
3061,94643 Pennsylvania Drive,Seattle,WA,98104,-122.3256,47.6036,PST (GMT-08)
3085,872 Buhler Point,Omaha,NE,68197,-96.0274,41.249,CST (GMT-06)
3093,6 Sycamore Court,Honolulu,HI,96820,-157.8795,21.351,HST (GMT-10)
3125,21353 Tennyson Trail,Gainesville,GA,30506,-83.8882,34.3562,EST (GMT-05)
3133,84799 Dottie Way,Denver,CO,80255,-104.4083,39.7388,MST (GMT-07)
3157,39 Sloan Trail,Shreveport,LA,71137,-93.7526,32.6076,CST (GMT-06)
3165,19138 Gerald Hill,Monroe,LA,71208,-92.0756,32.4968,CST (GMT-06)
3181,6 Corben Hill,Baton Rouge,LA,70810,-91.0919,30.3633,CST (GMT-06)
3189,109 Eastlawn Crossing,North Las Vegas,NV,89087,-115.1458,36.2204,PST (GMT-08)
3245,8 Oxford Parkway,Topeka,KS,66642,-95.7697,39.0429,CST (GMT-06)
3253,4 Dwight Drive,Baltimore,MD,21216,-76.6699,39.3093,EST (GMT-05)
3277,80499 Anzinger Junction,Wichita,KS,67220,-97.2805,37.7667,CST (GMT-06)
3285,17 Manitowish Junction,Escondido,CA,92030,-116.846,33.0169,PST (GMT-08)
3309,54 Havey Avenue,Saint Louis,MO,63196,-90.2435,38.6531,CST (GMT-06)
3317,1 Roth Road,Tempe,AZ,85284,-111.9197,33.3363,MST (GMT-07)
3349,3 Pearson Center,San Francisco,CA,94105,-122.3892,37.7864,PST (GMT-08)
3357,05 Oak Park,Kent,WA,98042,-122.1206,47.368,PST (GMT-08)
3373,944 Gerald Way,Anchorage,AK,99522,-149.4403,61.1089,AKST (GMT-09)
3389,9747 Harbort Plaza,Vancouver,WA,98682,-122.5212,45.6644,PST (GMT-08)
3405,545 Dovetail Way,Bronx,NY,10459,-73.894,40.8247,EST (GMT-05)
3453,60124 Hooker Plaza,Alpharetta,GA,30022,-84.2422,34.0268,EST (GMT-05)
3461,756 Moland Trail,Mesa,AZ,85205,-111.7129,33.4368,MST (GMT-07)
3469,092 Waubesa Avenue,New York City,NY,10045,-74.0087,40.7086,EST (GMT-05)
3485,8527 Lakewood Court,Baton Rouge,LA,70894,-91.0804,30.5159,CST (GMT-06)
3509,5 Sundown Circle,Philadelphia,PA,19125,-75.1262,39.9788,EST (GMT-05)
3525,886 Corscot Lane,Dallas,TX,75260,-96.7776,32.7673,CST (GMT-06)
3541,28339 Kensington Avenue,Minneapolis,MN,55417,-93.2361,44.9054,CST (GMT-06)
3573,33005 Ridgeview Pass,New York City,NY,10150,-73.9772,40.7808,EST (GMT-05)
3637,0278 Duke Park,Pittsburgh,PA,15255,-80.0248,40.4344,EST (GMT-05)
3645,39919 Buell Junction,Salt Lake City,UT,84189,-111.9083,40.6681,MST (GMT-07)
3677,5098 Linden Place,Philadelphia,PA,19196,-75.1179,40.0018,EST (GMT-05)
3717,91 Brown Trail,Oceanside,CA,92056,-117.2831,33.1968,PST (GMT-08)
3733,5 Judy Terrace,Raleigh,NC,27610,-78.6008,35.7667,EST (GMT-05)
3757,12805 Memorial Avenue,Brooksville,FL,34605,-82.4226,28.5059,EST (GMT-05)
3789,3 Milwaukee Drive,Knoxville,TN,37995,-83.9622,35.9901,EST (GMT-05)
3797,10982 Browning Court,Rochester,NY,14652,-77.6843,43.286,EST (GMT-05)
3821,292 Clyde Gallagher Junction,Falls Church,VA,22047,-77.2888,38.8318,EST (GMT-05)
3829,95212 Sunbrook Junction,Jeffersonville,IN,47134,-85.7321,38.2868,EST (GMT-05)
3837,43930 Shasta Alley,Charleston,WV,25326,-81.5547,38.2968,EST (GMT-05)
3861,70451 Garrison Way,Richmond,VA,23203,-77.4471,37.5593,EST (GMT-05)
3877,04 Mesta Parkway,Virginia Beach,VA,23454,-76.0237,36.8282,EST (GMT-05)
3893,2044 Kinsman Park,Phoenix,AZ,85015,-112.1011,33.5082,MST (GMT-07)
3901,75 1st Avenue,Las Vegas,NV,89120,-115.0885,36.0914,PST (GMT-08)
3933,888 Bobwhite Road,El Paso,TX,88546,-106.3,31.6948,MST (GMT-07)
3941,99581 Canary Point,Carlsbad,CA,92013,-116.846,33.0169,PST (GMT-08)
4005,2 Graedel Court,Glendale,AZ,85305,-112.2482,33.5291,MST (GMT-07)
4021,477 Hooker Pass,Kansas City,KS,66112,-94.764,39.116,CST (GMT-06)
4053,96145 Hudson Place,Allentown,PA,18105,-75.4712,40.6934,EST (GMT-05)
4069,28168 Union Park,Colorado Springs,CO,80995,-104.562,38.8247,MST (GMT-07)
4085,09868 Luster Circle,Colorado Springs,CO,80915,-104.7134,38.8558,MST (GMT-07)
4101,2670 Commercial Place,Honolulu,HI,96850,-157.863,21.3095,HST (GMT-10)
4109,971 Red Cloud Avenue,Fresno,CA,93786,-119.6397,36.7464,PST (GMT-08)
4125,028 Mcbride Terrace,Los Angeles,CA,90015,-118.2716,34.0434,PST (GMT-08)
4133,71860 Independence Trail,Salt Lake City,UT,84189,-111.9083,40.6681,MST (GMT-07)
4165,842 Merrick Way,Joliet,IL,60435,-88.1299,41.5454,CST (GMT-06)
4221,7065 Truax Alley,Chicago,IL,60619,-87.6054,41.7458,CST (GMT-06)
4253,247 Arrowood Road,Denver,CO,80291,-104.9876,39.7439,MST (GMT-07)
4277,47 Tomscot Circle,Omaha,NE,68124,-96.0495,41.2338,CST (GMT-06)
4293,645 Riverside Court,Paterson,NJ,7522,-74.1781,40.9252,EST (GMT-05)
4341,1 Calypso Street,Phoenix,AZ,85030,-112.1872,33.2765,MST (GMT-07)
4349,07 Porter Hill,Saint Augustine,FL,32092,-81.5264,29.9475,EST (GMT-05)
4357,904 Gina Alley,Boise,ID,83716,-115.9711,43.5345,MST (GMT-07)
4365,51390 Dunning Drive,Fresno,CA,93750,-119.6397,36.7464,PST (GMT-08)
4381,442 Lunder Alley,Portland,OR,97221,-122.7267,45.4918,PST (GMT-08)
4413,59 Marquette Court,Saint Petersburg,FL,33731,-82.7248,27.8918,EST (GMT-05)
4421,64 Lake View Crossing,Denver,CO,80204,-105.0259,39.734,MST (GMT-07)
4437,3943 Pond Circle,Arvada,CO,80005,-105.1097,39.8422,MST (GMT-07)
4445,759 High Crossing Plaza,Portland,OR,97206,-122.5973,45.484,PST (GMT-08)
4453,64918 Butterfield Point,Duluth,MN,55805,-92.0946,46.7987,CST (GMT-06)
4461,54 Huxley Lane,Oakland,CA,94622,-122.2337,37.799,PST (GMT-08)
4485,8 Eagle Crest Hill,Sacramento,CA,94207,-121.4444,38.3774,PST (GMT-08)
4533,607 Mcguire Avenue,Irving,TX,75062,-96.974,32.8479,CST (GMT-06)
4565,741 Parkside Center,Houston,TX,77206,-95.4342,29.834,CST (GMT-06)
4573,41 Lukken Pass,Pittsburgh,PA,15274,-80.0248,40.4344,EST (GMT-05)
4605,7832 Magdeline Center,Staten Island,NY,10305,-74.0768,40.5973,EST (GMT-05)
4613,9 Holmberg Center,Waco,TX,76796,-97.0823,31.5915,CST (GMT-06)
4637,74944 Delladonna Lane,Providence,RI,2905,-71.3959,41.7845,EST (GMT-05)
4653,20572 Mifflin Terrace,Saint Petersburg,FL,33737,-82.7248,27.8918,EST (GMT-05)
4677,63726 1st Point,Topeka,KS,66699,-95.7697,39.0429,CST (GMT-06)
4693,7 Melody Road,Tucson,AZ,85732,-110.7122,32.0848,MST (GMT-07)
4709,85218 Mesta Trail,Tempe,AZ,85284,-111.9197,33.3363,MST (GMT-07)
4725,8 Glendale Drive,Salt Lake City,UT,84189,-111.9083,40.6681,MST (GMT-07)
4733,04195 Buhler Avenue,Whittier,CA,90610,-118.2987,33.7866,PST (GMT-08)
4749,410 Kipling Alley,Denver,CO,80299,-104.4083,39.7388,MST (GMT-07)
4789,62044 Eastwood Parkway,Houston,TX,77266,-95.4342,29.834,CST (GMT-06)
4797,00 Park Meadow Point,Boston,MA,2124,-71.071,42.2868,EST (GMT-05)
4813,48154 Farragut Pass,Indianapolis,IN,46207,-86.1606,39.7673,EST (GMT-05)
4837,96659 Acker Terrace,Wilmington,DE,19886,-75.597,39.5645,EST (GMT-05)
4845,62234 Eliot Hill,Long Beach,CA,90805,-118.1801,33.8635,PST (GMT-08)
4893,4424 Linden Court,Denver,CO,80255,-104.4083,39.7388,MST (GMT-07)
4901,39 Macpherson Circle,San Jose,CA,95150,-121.897,37.3866,PST (GMT-08)
4909,4372 Kensington Parkway,Saint Paul,MN,55188,-93.1059,45.0059,CST (GMT-06)
4917,76030 Butterfield Terrace,Sacramento,CA,94263,-121.4444,38.3774,PST (GMT-08)
4949,2 Transport Court,Oklahoma City,OK,73167,-97.4075,35.5514,CST (GMT-06)
4957,66484 Golf Course Center,Shreveport,LA,71130,-93.7526,32.6076,CST (GMT-06)
4965,7175 Reindahl Park,Detroit,MI,48242,-83.3532,42.2166,EST (GMT-05)
4973,78 Fieldstone Place,San Diego,CA,92170,-116.846,33.0169,PST (GMT-08)
5005,265 Veith Alley,Charlotte,NC,28272,-80.8042,35.26,EST (GMT-05)
5045,502 Reindahl Avenue,San Diego,CA,92160,-116.846,33.0169,PST (GMT-08)
5053,839 Messerschmidt Way,Baltimore,MD,21281,-76.6205,39.2847,EST (GMT-05)
5061,394 Village Green Place,Dayton,OH,45432,-84.0856,39.739,EST (GMT-05)
5085,6 Warrior Road,Austin,TX,78778,-97.7713,30.3264,CST (GMT-06)
5117,5374 Fuller Lane,Anderson,SC,29625,-82.7087,34.5271,EST (GMT-05)
5157,008 Moland Junction,Birmingham,AL,35295,-86.9292,33.5446,CST (GMT-06)
5173,165 Shopko Hill,Ogden,UT,84409,-111.9567,41.2553,MST (GMT-07)
5197,7 Debra Road,Sacramento,CA,95818,-121.4929,38.5568,PST (GMT-08)
5205,9 Dayton Avenue,New Orleans,LA,70187,-89.8826,30.033,CST (GMT-06)
5229,3 Shoshone Lane,Houston,TX,77240,-95.4342,29.834,CST (GMT-06)
5237,0401 Steensland Road,Houston,TX,77250,-95.3629,29.7629,CST (GMT-06)
5245,95993 Stuart Crossing,Fort Lauderdale,FL,33305,-80.1229,26.1497,EST (GMT-05)
5309,94 Service Place,San Diego,CA,92137,-117.1197,32.8538,PST (GMT-08)
5317,13 Village Way,Laredo,TX,78044,-99.4819,27.3637,
5341,57 Homewood Junction,North Las Vegas,NV,89087,-115.1458,36.2204,PST (GMT-08)
5389,372 Mallory Terrace,Baton Rouge,LA,70836,-91.0892,30.392,CST (GMT-06)
5445,552 Scofield Trail,Phoenix,AZ,85072,-112.1872,33.2765,MST (GMT-07)
5461,401 Pine View Circle,Salt Lake City,UT,84105,-111.8581,40.7372,MST (GMT-07)
5477,52125 Golf Course Center,Zephyrhills,FL,33543,-82.3063,28.2059,EST (GMT-05)
5509,1366 Crowley Street,Atlanta,GA,30311,-84.4702,33.723,EST (GMT-05)
5541,21 Amoth Terrace,New York City,NY,10045,-74.0087,40.7086,EST (GMT-05)
5549,487 Jenna Plaza,Stamford,CT,6905,-73.5435,41.0888,EST (GMT-05)
5581,18 North Trail,Charleston,SC,29424,-79.937,32.7831,EST (GMT-05)
5613,5 Manitowish Place,Tampa,FL,33620,-82.4079,28.06,EST (GMT-05)
5629,5732 Cody Street,Fort Collins,CO,80525,-105.0547,40.5384,MST (GMT-07)
5637,2043 American Ash Trail,Phoenix,AZ,85035,-112.1832,33.4724,MST (GMT-07)
5677,09779 Troy Point,Shreveport,LA,71166,-93.7526,32.6076,CST (GMT-06)
5757,718 Charing Cross Hill,El Paso,TX,88569,-106.3,31.6948,MST (GMT-07)
5765,18519 Lillian Street,South Bend,IN,46699,-86.293,41.5968,EST (GMT-05)
5781,07 Vahlen Avenue,Fullerton,CA,92640,-117.9309,33.7862,PST (GMT-08)
5805,47 Commercial Terrace,Spring,TX,77388,-95.4695,30.0505,CST (GMT-06)
5813,7661 Main Crossing,Washington,DC,20057,-77.0146,38.8933,EST (GMT-05)
5821,3959 Lerdahl Center,Syracuse,NY,13205,-76.1452,43.0123,EST (GMT-05)
5853,2943 Granby Crossing,Daytona Beach,FL,32118,-81.0095,29.2219,EST (GMT-05)
5901,16306 Stang Way,Mountain View,CA,94042,-121.7053,37.1894,PST (GMT-08)
5925,67 Kennedy Court,Denver,CO,80249,-104.7556,39.7783,MST (GMT-07)
5933,015 Hovde Road,Lakeland,FL,33811,-82.0139,27.9865,EST (GMT-05)
5941,2 Golden Leaf Street,Phoenix,AZ,85083,-112.1294,33.7352,MST (GMT-07)
5981,8 Utah Park,Washington,DC,20551,-77.0452,38.892,EST (GMT-05)
5989,61640 Chinook Pass,San Antonio,TX,78296,-98.4616,29.4375,CST (GMT-06)
6005,5769 Hollow Ridge Junction,Dayton,OH,45432,-84.0856,39.739,EST (GMT-05)
6013,6 Lake View Way,Miami,FL,33190,-80.3483,25.5593,EST (GMT-05)
6021,54253 Brentwood Terrace,Washington,DC,20310,-77.0146,38.8933,EST (GMT-05)
6061,26594 Ruskin Plaza,Harrisburg,PA,17126,-76.88,40.2618,EST (GMT-05)
6069,1471 Dwight Court,Berkeley,CA,94712,-121.9215,37.6802,PST (GMT-08)
6101,3689 Arizona Street,Omaha,NE,68197,-96.0274,41.249,CST (GMT-06)
6109,2 8th Pass,Littleton,CO,80161,-104.4083,39.7388,MST (GMT-07)
6117,802 Jana Parkway,Largo,FL,33777,-82.7545,27.8546,EST (GMT-05)
6125,40910 Arapahoe Street,Murfreesboro,TN,37131,-86.421,35.8596,CST (GMT-06)
6133,01533 Bellgrove Hill,Denver,CO,80235,-105.0795,39.6472,MST (GMT-07)
6173,399 Gateway Place,Memphis,TN,38188,-89.9715,35.2017,CST (GMT-06)
6213,4365 Tennyson Place,Meridian,MS,39305,-88.6783,32.4401,CST (GMT-06)
6221,605 Stephen Hill,Winston Salem,NC,27116,-80.2073,36.0275,EST (GMT-05)
6253,83 Becker Avenue,Flushing,NY,11355,-73.8226,40.7536,EST (GMT-05)
6261,92 Trailsway Crossing,El Paso,TX,88569,-106.3,31.6948,MST (GMT-07)
6269,74 Columbus Junction,Saint Petersburg,FL,33737,-82.7248,27.8918,EST (GMT-05)
6285,23772 Northridge Alley,Fresno,CA,93786,-119.6397,36.7464,PST (GMT-08)
6293,0 Arkansas Drive,Silver Spring,MD,20904,-76.9969,39.0668,EST (GMT-05)
6301,12 Susan Crossing,Atlanta,GA,30316,-84.3339,33.7217,EST (GMT-05)
6325,5220 Drewry Alley,Billings,MT,59105,-108.599,45.9497,MST (GMT-07)
6357,5 Mitchell Alley,Pittsburgh,PA,15274,-80.0248,40.4344,EST (GMT-05)
6397,7469 Mitchell Parkway,Orange,CA,92668,-117.8742,33.7867,PST (GMT-08)
6429,395 Glendale Drive,El Paso,TX,79984,-106.3,31.6948,MST (GMT-07)
6445,02357 Westport Junction,Sacramento,CA,94263,-121.4444,38.3774,PST (GMT-08)
6453,8 Debra Street,Wichita,KS,67260,-97.2936,37.7194,CST (GMT-06)
6461,57 Gateway Junction,El Paso,TX,88530,-106.3,31.6948,MST (GMT-07)
6477,46485 Springs Place,New Orleans,LA,70187,-89.8826,30.033,CST (GMT-06)
6501,9855 Chive Road,El Paso,TX,88579,-106.3,31.6948,MST (GMT-07)
6525,540 Red Cloud Court,Cincinnati,OH,45208,-84.4355,39.1361,EST (GMT-05)
6573,2169 Wayridge Alley,Boca Raton,FL,33432,-80.0844,26.3462,EST (GMT-05)
6581,7 American Pass,Richmond,VA,23237,-77.4615,37.4011,EST (GMT-05)
6605,4865 Oakridge Parkway,Austin,TX,78726,-97.8326,30.43,CST (GMT-06)
6669,2 Tony Circle,Buffalo,NY,14205,-78.8871,42.7684,EST (GMT-05)
6685,27 Calypso Avenue,Memphis,TN,38119,-89.8501,35.0821,CST (GMT-06)
6709,23 Browning Road,Meridian,MS,39305,-88.6783,32.4401,CST (GMT-06)
6725,39644 Canary Point,Salt Lake City,UT,84152,-111.6627,40.7286,MST (GMT-07)
6733,4232 Lunder Road,Mobile,AL,36622,-88.178,30.6589,CST (GMT-06)
6749,09900 West Way,Greensboro,NC,27415,-80.0244,36.0807,EST (GMT-05)
6765,2 Westport Trail,Miami,FL,33111,-80.4582,25.5584,EST (GMT-05)
6781,252 Laurel Pass,Springfield,IL,62718,-89.6466,39.778,CST (GMT-06)
6797,72 2nd Terrace,Torrance,CA,90505,-118.3507,33.8106,PST (GMT-08)
6837,589 Mallard Drive,Dayton,OH,45414,-84.2024,39.8285,EST (GMT-05)
6861,3802 Vera Center,Knoxville,TN,37995,-83.9622,35.9901,EST (GMT-05)
6877,9 Claremont Alley,Baltimore,MD,21216,-76.6699,39.3093,EST (GMT-05)
6885,870 Warner Hill,San Diego,CA,92191,-116.846,33.0169,PST (GMT-08)
6901,410 West Avenue,Baltimore,MD,21203,-76.6205,39.2847,EST (GMT-05)
6981,7 1st Center,Dallas,TX,75236,-96.9177,32.69,CST (GMT-06)
6989,0707 Green Ridge Center,High Point,NC,27264,-80.0244,36.0807,EST (GMT-05)
7037,37 Ridgeview Street,Augusta,GA,30905,-82.1337,33.413,EST (GMT-05)
7053,3635 Fremont Crossing,Phoenix,AZ,85030,-112.1872,33.2765,MST (GMT-07)
7069,493 Clarendon Pass,Phoenix,AZ,85030,-112.1872,33.2765,MST (GMT-07)
7085,07 Shasta Trail,Denver,CO,80241,-104.9548,39.9274,MST (GMT-07)
7093,03 Bonner Avenue,New York City,NY,10014,-74.0054,40.7339,EST (GMT-05)
7109,396 Russell Center,El Paso,TX,88579,-106.3,31.6948,MST (GMT-07)
7117,5242 Oxford Center,Philadelphia,PA,19131,-75.2282,39.9845,EST (GMT-05)
7197,1 Clarendon Crossing,Chandler,AZ,85246,-112.1872,33.2765,MST (GMT-07)
7205,3671 Weeping Birch Drive,El Paso,TX,79928,-106.1401,31.6631,MST (GMT-07)
7237,3300 Waywood Alley,Saint Joseph,MO,64504,-94.8677,39.7076,CST (GMT-06)
7253,20 Amoth Plaza,Boulder,CO,80310,-105.3735,40.0878,MST (GMT-07)
7261,2292 Oakridge Parkway,Colorado Springs,CO,80995,-104.562,38.8247,MST (GMT-07)
7333,2 Butterfield Crossing,Denver,CO,80204,-105.0259,39.734,MST (GMT-07)
7341,60660 Dixon Way,Kansas City,KS,66105,-94.6356,39.085,CST (GMT-06)
7357,20 Hudson Trail,Saint Louis,MO,63121,-90.3055,38.7072,CST (GMT-06)
7389,328 Arapahoe Crossing,Panama City,FL,32405,-85.6727,30.1949,CST (GMT-06)
7397,89 Cascade Center,Minneapolis,MN,55407,-93.2545,44.9378,CST (GMT-06)
7405,6 Caliangt Parkway,Salt Lake City,UT,84152,-111.6627,40.7286,MST (GMT-07)
7413,74 Comanche Drive,Raleigh,NC,27690,-78.6253,35.7977,EST (GMT-05)
7421,688 Forster Hill,Saint Paul,MN,55115,-92.9391,45.071,CST (GMT-06)
7453,662 Charing Cross Court,Newark,NJ,7112,-74.2131,40.7107,EST (GMT-05)
7461,43 Montana Street,El Paso,TX,79940,-106.3,31.6948,MST (GMT-07)
7477,3 Hintze Plaza,Memphis,TN,38136,-89.9715,35.2017,CST (GMT-06)
7533,1 Morning Road,Houston,TX,77260,-95.3867,29.7687,CST (GMT-06)
7549,88 Kenwood Hill,North Las Vegas,NV,89036,-114.9721,35.9279,PST (GMT-08)
7565,0 Russell Point,Omaha,NE,68144,-96.1188,41.2335,CST (GMT-06)
7589,18 Thierer Avenue,Sioux Falls,SD,57198,-96.7913,43.6746,CST (GMT-06)
7605,12871 East Circle,Miami,FL,33233,-80.4582,25.5584,EST (GMT-05)
7613,09032 Leroy Plaza,Jersey City,NJ,7310,-74.0431,40.7324,EST (GMT-05)
7685,298 Bunker Hill Hill,Indianapolis,IN,46202,-86.1595,39.7851,EST (GMT-05)
7757,57050 Armistice Park,Knoxville,TN,37995,-83.9622,35.9901,EST (GMT-05)
7781,81787 Mendota Plaza,Denver,CO,80228,-105.156,39.6888,MST (GMT-07)
7805,44 Hintze Lane,Des Moines,IA,50936,-93.5722,41.6727,CST (GMT-06)
7813,33402 Prairie Rose Way,Flint,MI,48505,-83.7001,43.0634,EST (GMT-05)
7821,8 Artisan Crossing,Birmingham,AL,35279,-86.9292,33.5446,CST (GMT-06)
7837,8796 Lunder Avenue,El Paso,TX,88553,-106.3,31.6948,MST (GMT-07)
7861,6828 Sunfield Road,Grand Junction,CO,81505,-108.5968,39.1071,MST (GMT-07)
7893,9 Quincy Center,Colorado Springs,CO,80951,-104.6556,38.8881,MST (GMT-07)
7933,62 Clove Street,Tacoma,WA,98411,-122.1132,47.0662,PST (GMT-08)
7941,5671 Elka Lane,Albuquerque,NM,87190,-106.6729,35.0443,MST (GMT-07)
8005,2917 Wayridge Alley,Columbus,OH,43204,-83.078,39.9523,EST (GMT-05)
8029,93 Bayside Alley,Amarillo,TX,79176,-101.8165,35.1885,CST (GMT-06)
8037,228 American Ash Pass,Farmington,MI,48335,-83.4053,42.4617,EST (GMT-05)
8069,50 Shasta Street,Salt Lake City,UT,84120,-112.0001,40.695,MST (GMT-07)
8077,6 Debs Alley,Newark,NJ,7104,-74.1695,40.7664,EST (GMT-05)
8085,260 Hoffman Point,San Diego,CA,92127,-117.0856,33.0279,PST (GMT-08)
8093,61 Golden Leaf Street,Apache Junction,AZ,85219,-111.2795,33.3616,MST (GMT-07)
8117,18 Darwin Road,Salt Lake City,UT,84145,-111.9083,40.6681,MST (GMT-07)
8149,105 Steensland Hill,Memphis,TN,38188,-89.9715,35.2017,CST (GMT-06)
8165,26915 Veith Way,Round Rock,TX,78682,-97.6026,30.6568,CST (GMT-06)
8173,4461 Fairview Junction,Dallas,TX,75353,-96.7776,32.7673,CST (GMT-06)
8181,47599 Schiller Alley,Lexington,KY,40546,-84.4715,38.0283,EST (GMT-05)
8197,12 Di Loreto Terrace,Sacramento,CA,94297,-121.4444,38.3774,PST (GMT-08)
8213,06 Washington Drive,Pasadena,CA,91125,-118.2987,33.7866,PST (GMT-08)
8229,6905 Tomscot Trail,Dayton,OH,45426,-84.3211,39.7982,EST (GMT-05)
8237,42 Maryland Park,Fort Collins,CO,80525,-105.0547,40.5384,MST (GMT-07)
8245,5973 Morningstar Terrace,Las Vegas,NV,89105,-115.1471,36.086,PST (GMT-08)
8253,8 Talisman Way,Toledo,OH,43699,-83.6589,41.6538,EST (GMT-05)
8269,7349 Vahlen Trail,Pompano Beach,FL,33064,-80.1157,26.2785,EST (GMT-05)
8285,7 Buena Vista Park,Waterloo,IA,50706,-92.2703,42.4156,CST (GMT-06)
8293,42645 Mendota Hill,Washington,DC,20442,-77.0177,38.896,EST (GMT-05)
8301,0399 Carioca Circle,Lancaster,CA,93584,-118.2987,33.7866,PST (GMT-08)
8325,00 Golf View Street,Danbury,CT,6816,-73.3637,41.3089,EST (GMT-05)
8333,2720 Summerview Pass,Madison,WI,53779,-89.3242,43.0982,CST (GMT-06)
8341,508 Cascade Parkway,Greeley,CO,80638,-104.315,40.5009,MST (GMT-07)
8349,56 Bashford Place,Roanoke,VA,24040,-79.9579,37.2742,EST (GMT-05)
8373,1 Debs Place,Battle Creek,MI,49018,-85.0045,42.2464,EST (GMT-05)
8389,99 Marquette Pass,Anchorage,AK,99599,-149.8804,61.1872,AKST (GMT-09)
8405,72938 Longview Alley,Denver,CO,80249,-104.7556,39.7783,MST (GMT-07)
8421,8792 Rusk Park,Colorado Springs,CO,80915,-104.7134,38.8558,MST (GMT-07)
8437,01147 Hallows Way,Santa Fe,NM,87505,-105.8688,35.6219,MST (GMT-07)
8445,4 Cascade Trail,Aurora,IL,60505,-88.2971,41.7582,CST (GMT-06)
8469,40784 Caliangt Avenue,Knoxville,TN,37914,-83.8496,35.9918,EST (GMT-05)
8477,719 Farmco Avenue,Charleston,WV,25336,-81.5547,38.2968,EST (GMT-05)
8509,8 Arizona Point,Knoxville,TN,37914,-83.8496,35.9918,EST (GMT-05)
8517,2264 Old Gate Junction,Honolulu,HI,96805,-157.8585,21.3062,HST (GMT-10)
8525,3361 Texas Parkway,Little Rock,AR,72231,-92.1894,34.8019,CST (GMT-06)
8533,9 Quincy Street,Torrance,CA,90505,-118.3507,33.8106,PST (GMT-08)
8557,54 Merry Junction,Whittier,CA,90610,-118.2987,33.7866,PST (GMT-08)
8565,76458 Acker Street,Burbank,CA,91520,-118.348,34.1869,PST (GMT-08)
8581,4147 Oakridge Pass,Birmingham,AL,35263,-86.8094,33.5225,CST (GMT-06)
8597,738 Oak Valley Street,Irvine,CA,92717,-117.8398,33.6462,PST (GMT-08)
8613,72 Sullivan Terrace,Prescott,AZ,86305,-112.9584,34.8185,MST (GMT-07)
8621,87247 Transport Way,Des Moines,IA,50936,-93.5722,41.6727,CST (GMT-06)
8637,347 Corry Parkway,Anchorage,AK,99512,-149.8084,61.204,AKST (GMT-09)
8645,350 Union Point,Lakeland,FL,33811,-82.0139,27.9865,EST (GMT-05)
8653,47808 Anzinger Point,Eugene,OR,97405,-123.0998,44.0185,PST (GMT-08)
8669,069 Summit Trail,Albuquerque,NM,87115,-106.5461,35.0549,MST (GMT-07)
8717,79 Blackbird Pass,Louisville,KY,40298,-85.6768,38.189,EST (GMT-05)
8773,1461 Pond Park,Pittsburgh,PA,15274,-80.0248,40.4344,EST (GMT-05)
8805,86135 Donald Point,Ogden,UT,84403,-111.9489,41.1894,MST (GMT-07)
8829,24 Northfield Center,Grand Rapids,MI,49510,-85.5503,43.0314,EST (GMT-05)
8837,29 Hansons Way,Columbia,MO,65218,-92.1022,38.9033,CST (GMT-06)
8845,7750 Cambridge Point,Portland,OR,97206,-122.5973,45.484,PST (GMT-08)
8885,25 Hudson Street,Dallas,TX,75358,-96.7652,32.7942,CST (GMT-06)
8893,92 Steensland Center,Oakland,CA,94605,-122.1633,37.7641,PST (GMT-08)
8909,01689 Elka Avenue,Pasadena,TX,77505,-95.1464,29.6518,CST (GMT-06)
8925,1 Hollow Ridge Road,Phoenix,AZ,85005,-112.1872,33.2765,MST (GMT-07)
8957,49599 Bartillon Way,Carson City,NV,89706,-119.7526,39.2025,PST (GMT-08)
8981,9 Ronald Regan Terrace,Milwaukee,WI,53215,-87.9429,43.006,CST (GMT-06)
8989,96 5th Court,Sarasota,FL,34233,-82.477,27.2866,EST (GMT-05)
9013,5 Larry Plaza,Raleigh,NC,27658,-78.6253,35.7977,EST (GMT-05)
9061,357 Sachtjen Park,Tucson,AZ,85748,-110.7758,32.215,MST (GMT-07)
9069,7 Delladonna Place,Phoenix,AZ,85015,-112.1011,33.5082,MST (GMT-07)
9093,46934 Hoard Drive,Juneau,AK,99812,-134.4742,58.3271,AKST (GMT-09)